CCSDS_OMM_VERS = 2.0
CREATION_DATE  = 
ORIGINATOR     = 

OBJECT_NAME    = HULIANWANG DIGUI-136
OBJECT_ID      = 2025-311J
CENTER_NAME    = EARTH
REF_FRAME      = TEME
TIME_SYSTEM    = UTC
MEAN_ELEMENT_THEORY = SGP/SGP4

EPOCH          = 2026-01-19T12:31:24.282912
MEAN_MOTION    = 13.87669700
ECCENTRICITY   = .00004531
INCLINATION    = 50.0106
RA_OF_ASC_NODE = 298.0118
ARG_OF_PERICENTER = 348.0623
MEAN_ANOMALY   = 12.0264

EPHEMERIS_TYPE = 0
CLASSIFICATION_TYPE = U
NORAD_CAT_ID   = 67244
ELEMENT_SET_NO = 999
REV_AT_EPOCH   = 342
BSTAR          = .13236406E-3
MEAN_MOTION_DOT = .12E-6
MEAN_MOTION_DDOT = 0

CCSDS_OMM_VERS = 2.0
CREATION_DATE  = 
ORIGINATOR     = 

OBJECT_NAME    = CZ-8A R/B
OBJECT_ID      = 2025-311K
CENTER_NAME    = EARTH
REF_FRAME      = TEME
TIME_SYSTEM    = UTC
MEAN_ELEMENT_THEORY = SGP/SGP4

EPOCH          = 2026-01-20T23:37:39.315648
MEAN_MOTION    = 14.12606801
ECCENTRICITY   = .00890257
INCLINATION    = 50.0047
RA_OF_ASC_NODE = 288.3824
ARG_OF_PERICENTER = 171.6385
MEAN_ANOMALY   = 188.6030

EPHEMERIS_TYPE = 0
CLASSIFICATION_TYPE = U
NORAD_CAT_ID   = 67245
ELEMENT_SET_NO = 999
REV_AT_EPOCH   = 368
BSTAR          = .10140483E-4
MEAN_MOTION_DOT = -.135E-5
MEAN_MOTION_DDOT = 0

CCSDS_OMM_VERS = 2.0
CREATION_DATE  = 
ORIGINATOR     = 

OBJECT_NAME    = FENGYUN 4C
OBJECT_ID      = 2025-312A
CENTER_NAME    = EARTH
REF_FRAME      = TEME
TIME_SYSTEM    = UTC
MEAN_ELEMENT_THEORY = SGP/SGP4

EPOCH          = 2026-01-20T23:05:55.311072
MEAN_MOTION    = 1.00268351
ECCENTRICITY   = .00021869
INCLINATION    = 0.0616
RA_OF_ASC_NODE = 239.2520
ARG_OF_PERICENTER = 53.7481
MEAN_ANOMALY   = 306.7596

EPHEMERIS_TYPE = 0
CLASSIFICATION_TYPE = U
NORAD_CAT_ID   = 67246
ELEMENT_SET_NO = 999
REV_AT_EPOCH   = 30
BSTAR          = 0
MEAN_MOTION_DOT = -.309E-5
MEAN_MOTION_DDOT = 0

CCSDS_OMM_VERS = 2.0
CREATION_DATE  = 
ORIGINATOR     = 

OBJECT_NAME    = CZ-3B R/B
OBJECT_ID      = 2025-312B
CENTER_NAME    = EARTH
REF_FRAME      = TEME
TIME_SYSTEM    = UTC
MEAN_ELEMENT_THEORY = SGP/SGP4

EPOCH          = 2026-01-20T15:16:51.895200
MEAN_MOTION    = 2.46339666
ECCENTRICITY   = .71893444
INCLINATION    = 28.3944
RA_OF_ASC_NODE = 324.3318
ARG_OF_PERICENTER = 195.2380
MEAN_ANOMALY   = 119.0804

EPHEMERIS_TYPE = 0
CLASSIFICATION_TYPE = U
NORAD_CAT_ID   = 67247
ELEMENT_SET_NO = 999
REV_AT_EPOCH   = 60
BSTAR          = .93726397E-3
MEAN_MOTION_DOT = .37887E-2
MEAN_MOTION_DDOT = .1364494E-5

CCSDS_OMM_VERS = 2.0
CREATION_DATE  = 
ORIGINATOR     = 

OBJECT_NAME    = 2025-313A
OBJECT_ID      = 2025-313A
CENTER_NAME    = EARTH
REF_FRAME      = TEME
TIME_SYSTEM    = UTC
MEAN_ELEMENT_THEORY = SGP/SGP4

EPOCH          = 2026-01-20T22:31:59.492064
MEAN_MOTION    = 14.66820193
ECCENTRICITY   = .02805775
INCLINATION    = 97.5619
RA_OF_ASC_NODE = 96.6673
ARG_OF_PERICENTER = 89.7872
MEAN_ANOMALY   = 273.5478

EPHEMERIS_TYPE = 0
CLASSIFICATION_TYPE = U
NORAD_CAT_ID   = 67248
ELEMENT_SET_NO = 999
REV_AT_EPOCH   = 343
BSTAR          = .36503433E-3
MEAN_MOTION_DOT = .364E-4
MEAN_MOTION_DDOT = 0

CCSDS_OMM_VERS = 2.0
CREATION_DATE  = 
ORIGINATOR     = 

OBJECT_NAME    = 2025-313B
OBJECT_ID      = 2025-313B
CENTER_NAME    = EARTH
REF_FRAME      = TEME
TIME_SYSTEM    = UTC
MEAN_ELEMENT_THEORY = SGP/SGP4

EPOCH          = 2026-01-20T21:45:47.442240
MEAN_MOTION    = 14.73252758
ECCENTRICITY   = .0297701
INCLINATION    = 97.5308
RA_OF_ASC_NODE = 96.7569
ARG_OF_PERICENTER = 93.8773
MEAN_ANOMALY   = 269.6523

EPHEMERIS_TYPE = 0
CLASSIFICATION_TYPE = U
NORAD_CAT_ID   = 67249
ELEMENT_SET_NO = 999
REV_AT_EPOCH   = 344
BSTAR          = .6885038E-3
MEAN_MOTION_DOT = .9056E-4
MEAN_MOTION_DDOT = 0

CCSDS_OMM_VERS = 2.0
CREATION_DATE  = 
ORIGINATOR     = 

OBJECT_NAME    = 2025-313C
OBJECT_ID      = 2025-313C
CENTER_NAME    = EARTH
REF_FRAME      = TEME
TIME_SYSTEM    = UTC
MEAN_ELEMENT_THEORY = SGP/SGP4

EPOCH          = 2026-01-20T22:21:51.096096
MEAN_MOTION    = 14.84942775
ECCENTRICITY   = .01622715
INCLINATION    = 97.6346
RA_OF_ASC_NODE = 97.4833
ARG_OF_PERICENTER = 103.5702
MEAN_ANOMALY   = 258.3647

EPHEMERIS_TYPE = 0
CLASSIFICATION_TYPE = U
NORAD_CAT_ID   = 67250
ELEMENT_SET_NO = 999
REV_AT_EPOCH   = 347
BSTAR          = .27470346E-2
MEAN_MOTION_DOT = .29695E-3
MEAN_MOTION_DDOT = 0

CCSDS_OMM_VERS = 2.0
CREATION_DATE  = 
ORIGINATOR     = 

OBJECT_NAME    = 2025-313D
OBJECT_ID      = 2025-313D
CENTER_NAME    = EARTH
REF_FRAME      = TEME
TIME_SYSTEM    = UTC
MEAN_ELEMENT_THEORY = SGP/SGP4

EPOCH          = 2026-01-20T22:23:04.854912
MEAN_MOTION    = 14.88790087
ECCENTRICITY   = .01523517
INCLINATION    = 97.5862
RA_OF_ASC_NODE = 97.4721
ARG_OF_PERICENTER = 96.1307
MEAN_ANOMALY   = 265.7293

EPHEMERIS_TYPE = 0
CLASSIFICATION_TYPE = U
NORAD_CAT_ID   = 67251
ELEMENT_SET_NO = 999
REV_AT_EPOCH   = 348
BSTAR          = .65091946E-3
MEAN_MOTION_DOT = .7516E-4
MEAN_MOTION_DDOT = 0

CCSDS_OMM_VERS = 2.0
CREATION_DATE  = 
ORIGINATOR     = 

OBJECT_NAME    = ZORKIY-2M-VPE
OBJECT_ID      = 2025-313E
CENTER_NAME    = EARTH
REF_FRAME      = TEME
TIME_SYSTEM    = UTC
MEAN_ELEMENT_THEORY = SGP/SGP4

EPOCH          = 2026-01-20T22:59:06.063648
MEAN_MOTION    = 15.21778583
ECCENTRICITY   = .00114906
INCLINATION    = 97.4100
RA_OF_ASC_NODE = 98.0665
ARG_OF_PERICENTER = 137.7028
MEAN_ANOMALY   = 222.5096

EPHEMERIS_TYPE = 0
CLASSIFICATION_TYPE = U
NORAD_CAT_ID   = 67252
ELEMENT_SET_NO = 999
REV_AT_EPOCH   = 356
BSTAR          = .80544908E-3
MEAN_MOTION_DOT = .18264E-3
MEAN_MOTION_DDOT = 0

CCSDS_OMM_VERS = 2.0
CREATION_DATE  = 
ORIGINATOR     = 

OBJECT_NAME    = AIST-2T 1
OBJECT_ID      = 2025-313F
CENTER_NAME    = EARTH
REF_FRAME      = TEME
TIME_SYSTEM    = UTC
MEAN_ELEMENT_THEORY = SGP/SGP4

EPOCH          = 2026-01-20T22:58:41.531232
MEAN_MOTION    = 15.65896573
ECCENTRICITY   = .00105084
INCLINATION    = 97.1019
RA_OF_ASC_NODE = 98.3367
ARG_OF_PERICENTER = 154.4470
MEAN_ANOMALY   = 205.7312

EPHEMERIS_TYPE = 0
CLASSIFICATION_TYPE = U
NORAD_CAT_ID   = 67253
ELEMENT_SET_NO = 999
REV_AT_EPOCH   = 364
BSTAR          = .86341531E-3
MEAN_MOTION_DOT = .88624E-3
MEAN_MOTION_DDOT = 0

CCSDS_OMM_VERS = 2.0
CREATION_DATE  = 
ORIGINATOR     = 

OBJECT_NAME    = AIST-2T 2
OBJECT_ID      = 2025-313G
CENTER_NAME    = EARTH
REF_FRAME      = TEME
TIME_SYSTEM    = UTC
MEAN_ELEMENT_THEORY = SGP/SGP4

EPOCH          = 2026-01-20T23:02:16.361376
MEAN_MOTION    = 15.65148687
ECCENTRICITY   = .00097337
INCLINATION    = 97.1014
RA_OF_ASC_NODE = 98.3335
ARG_OF_PERICENTER = 161.8557
MEAN_ANOMALY   = 198.3052

EPHEMERIS_TYPE = 0
CLASSIFICATION_TYPE = U
NORAD_CAT_ID   = 67254
ELEMENT_SET_NO = 999
REV_AT_EPOCH   = 363
BSTAR          = .40605677E-3
MEAN_MOTION_DOT = .40152E-3
MEAN_MOTION_DDOT = 0

CCSDS_OMM_VERS = 2.0
CREATION_DATE  = 
ORIGINATOR     = 

OBJECT_NAME    = 2025-313H
OBJECT_ID      = 2025-313H
CENTER_NAME    = EARTH
REF_FRAME      = TEME
TIME_SYSTEM    = UTC
MEAN_ELEMENT_THEORY = SGP/SGP4

EPOCH          = 2026-01-20T22:11:34.042848
MEAN_MOTION    = 15.02210477
ECCENTRICITY   = .00916057
INCLINATION    = 97.3081
RA_OF_ASC_NODE = 97.0697
ARG_OF_PERICENTER = 116.1761
MEAN_ANOMALY   = 244.8921

EPHEMERIS_TYPE = 0
CLASSIFICATION_TYPE = U
NORAD_CAT_ID   = 67255
ELEMENT_SET_NO = 999
REV_AT_EPOCH   = 351
BSTAR          = .59207287E-3
MEAN_MOTION_DOT = .8489E-4
MEAN_MOTION_DDOT = 0

