HULIANWANG DIGUI-136    
1 67244U 25311J   26019.52180883  .00000012  00000+0  13236-3 0  9998
2 67244  50.0106 298.0118 0000453 348.0623  12.0264 13.87669700  3425
CZ-8A R/B               
1 67245U 25311K   26020.98448282 -.00000135  00000+0  10140-4 0  9990
2 67245  50.0047 288.3824 0089025 171.6385 188.6030 14.12606801  3684
FENGYUN 4C              
1 67246U 25312A   26020.96244573 -.00000309  00000+0  00000+0 0  9999
2 67246   0.0616 239.2520 0002186  53.7481 306.7596  1.00268351   303
CZ-3B R/B               
1 67247U 25312B   26020.63671175  .00378870  13645-5  93726-3 0  9992
2 67247  28.3944 324.3318 7189344 195.2380 119.0804  2.46339666   600
2025-313A               
1 67248U 25313A   26020.93888301  .00003640  00000+0  36503-3 0  9993
2 67248  97.5619  96.6673 0280577  89.7872 273.5478 14.66820193  3439
2025-313B               
1 67249U 25313B   26020.90679910  .00009056  00000+0  68850-3 0  9992
2 67249  97.5308  96.7569 0297701  93.8773 269.6523 14.73252758  3445
2025-313C               
1 67250U 25313C   26020.93184139  .00029695  00000+0  27470-2 0  9994
2 67250  97.6346  97.4833 0162271 103.5702 258.3647 14.84942775  3478
2025-313D               
1 67251U 25313D   26020.93269508  .00007516  00000+0  65092-3 0  9990
2 67251  97.5862  97.4721 0152351  96.1307 265.7293 14.88790087  3484
ZORKIY-2M-VPE           
1 67252U 25313E   26020.95770907  .00018264  00000+0  80545-3 0  9995
2 67252  97.4100  98.0665 0011490 137.7028 222.5096 15.21778583  3569
AIST-2T 1               
1 67253U 25313F   26020.95742513  .00088624  00000+0  86342-3 0  9996
2 67253  97.1019  98.3367 0010508 154.4470 205.7312 15.65896573  3645
AIST-2T 2               
1 67254U 25313G   26020.95991159  .00040152  00000+0  40606-3 0  9996
2 67254  97.1014  98.3335 0009733 161.8557 198.3052 15.65148687  3635
2025-313H               
1 67255U 25313H   26020.92469957  .00008489  00000+0  59207-3 0  9994
2 67255  97.3081  97.0697 0091605 116.1761 244.8921 15.02210477  3515
